[{"CCSDS_OMM_VERS":"2.0","COMMENT":"GENERATED VIA SPACE-TRACK.ORG API","CREATION_DATE":"2021-11-02T18:24:01","ORIGINATOR":"18 SPCS","OBJECT_NAME":"TBA - TO BE ASSIGNED","OBJECT_ID":"","CENTER_NAME":"EARTH","REF_FRAME":"TEME","TIME_SYSTEM":"UTC","MEAN_ELEMENT_THEORY":"SGP4","EPOCH":"2021-11-02T09:06:05.211936","MEAN_MOTION":"5.13565416","ECCENTRICITY":"0.52482600","INCLINATION":"18.3288","RA_OF_ASC_NODE":"94.1772","ARG_OF_PERICENTER":"293.0427","MEAN_ANOMALY":"21.0051","EPHEMERIS_TYPE":"0","CLASSIFICATION_TYPE":"U","NORAD_CAT_ID":"83970","ELEMENT_SET_NO":"999","REV_AT_EPOCH":"11761","BSTAR":"0.00602680000000","MEAN_MOTION_DOT":"0.00013526","MEAN_MOTION_DDOT":"0.0000000000000","SEMIMAJOR_AXIS":"14190.728","PERIOD":"280.393","APOAPSIS":"15260.255","PERIAPSIS":"364.930","OBJECT_TYPE":"TBA","RCS_SIZE":null,"COUNTRY_CODE":null,"LAUNCH_DATE":null,"SITE":null,"DECAY_DATE":null,"FILE":"3197730","GP_ID":"188716678","TLE_LINE0":"0 TBA - TO BE ASSIGNED","TLE_LINE1":"1 83970U          21306.37922699 +.00013526 +00000+0 +60268-2 0  9996","TLE_LINE2":"2 83970  18.3288  94.1772 5248260 293.0427  21.0051  5.13565416117614"},{"CCSDS_OMM_VERS":"2.0","COMMENT":"GENERATED VIA SPACE-TRACK.ORG API","CREATION_DATE":"2021-10-27T17:44:55","ORIGINATOR":"18 SPCS","OBJECT_NAME":"TBA - TO BE ASSIGNED","OBJECT_ID":"","CENTER_NAME":"EARTH","REF_FRAME":"TEME","TIME_SYSTEM":"UTC","MEAN_ELEMENT_THEORY":"SGP4","EPOCH":"2021-10-26T15:55:28.770816","MEAN_MOTION":"2.15308342","ECCENTRICITY":"0.69948010","INCLINATION":"18.8040","RA_OF_ASC_NODE":"166.6971","ARG_OF_PERICENTER":"206.8469","MEAN_ANOMALY":"86.5120","EPHEMERIS_TYPE":"0","CLASSIFICATION_TYPE":"U","NORAD_CAT_ID":"83975","ELEMENT_SET_NO":"999","REV_AT_EPOCH":"4986","BSTAR":"0.00000000000000","MEAN_MOTION_DOT":"-0.00000179","MEAN_MOTION_DDOT":"0.0000000000000","SEMIMAJOR_AXIS":"25333.466","PERIOD":"668.808","APOAPSIS":"36675.586","PERIAPSIS":"1235.076","OBJECT_TYPE":"TBA","RCS_SIZE":null,"COUNTRY_CODE":null,"LAUNCH_DATE":null,"SITE":null,"DECAY_DATE":null,"FILE":"3187100","GP_ID":"188251259","TLE_LINE0":"0 TBA - TO BE ASSIGNED","TLE_LINE1":"1 83975U          21299.66352744 -.00000179 +00000+0 +00000+0 0  9998","TLE_LINE2":"2 83975  18.8040 166.6971 6994801 206.8469  86.5120  2.15308342 49860"},{"CCSDS_OMM_VERS":"2.0","COMMENT":"GENERATED VIA SPACE-TRACK.ORG API","CREATION_DATE":"2021-07-16T18:01:57","ORIGINATOR":"18 SPCS","OBJECT_NAME":"TBA - TO BE ASSIGNED","OBJECT_ID":"","CENTER_NAME":"EARTH","REF_FRAME":"TEME","TIME_SYSTEM":"UTC","MEAN_ELEMENT_THEORY":"SGP4","EPOCH":"2021-06-26T10:51:36.247968","MEAN_MOTION":"2.12214383","ECCENTRICITY":"0.69006910","INCLINATION":"64.3591","RA_OF_ASC_NODE":"349.0550","ARG_OF_PERICENTER":"19.3776","MEAN_ANOMALY":"357.3536","EPHEMERIS_TYPE":"0","CLASSIFICATION_TYPE":"U","NORAD_CAT_ID":"83999","ELEMENT_SET_NO":"999","REV_AT_EPOCH":"2910","BSTAR":"0.00000000000000","MEAN_MOTION_DOT":"-0.00000094","MEAN_MOTION_DDOT":"0.0000000000000","SEMIMAJOR_AXIS":"25579.102","PERIOD":"678.559","APOAPSIS":"36852.315","PERIAPSIS":"1549.619","OBJECT_TYPE":"TBA","RCS_SIZE":null,"COUNTRY_CODE":null,"LAUNCH_DATE":null,"SITE":null,"DECAY_DATE":null,"FILE":"3077907","GP_ID":"180995534","TLE_LINE0":"0 TBA - TO BE ASSIGNED","TLE_LINE1":"1 83999U          21177.45250287 -.00000094 +00000+0 +00000+0 0  9991","TLE_LINE2":"2 83999  64.3591 349.0550 6900691  19.3776 357.3536  2.12214383 29108"},{"CCSDS_OMM_VERS":"2.0","COMMENT":"GENERATED VIA SPACE-TRACK.ORG API","CREATION_DATE":"2021-11-02T18:24:01","ORIGINATOR":"18 SPCS","OBJECT_NAME":"TBA - TO BE ASSIGNED","OBJECT_ID":"","CENTER_NAME":"EARTH","REF_FRAME":"TEME","TIME_SYSTEM":"UTC","MEAN_ELEMENT_THEORY":"SGP4","EPOCH":"2021-11-01T14:10:09.429888","MEAN_MOTION":"2.16230646","ECCENTRICITY":"0.61204030","INCLINATION":"22.9609","RA_OF_ASC_NODE":"106.5197","ARG_OF_PERICENTER":"276.0578","MEAN_ANOMALY":"21.7555","EPHEMERIS_TYPE":"0","CLASSIFICATION_TYPE":"U","NORAD_CAT_ID":"84006","ELEMENT_SET_NO":"999","REV_AT_EPOCH":"5173","BSTAR":"0.00000000000000","MEAN_MOTION_DOT":"-0.00000065","MEAN_MOTION_DDOT":"0.0000000000000","SEMIMAJOR_AXIS":"25261.376","PERIOD":"665.956","APOAPSIS":"34344.222","PERIAPSIS":"3422.261","OBJECT_TYPE":"TBA","RCS_SIZE":null,"COUNTRY_CODE":null,"LAUNCH_DATE":null,"SITE":null,"DECAY_DATE":null,"FILE":"3197730","GP_ID":"188716356","TLE_LINE0":"0 TBA - TO BE ASSIGNED","TLE_LINE1":"1 84006U          21305.59038692 -.00000065 +00000+0 +00000+0 0  9991","TLE_LINE2":"2 84006  22.9609 106.5197 6120403 276.0578  21.7555  2.16230646 51739"},{"CCSDS_OMM_VERS":"2.0","COMMENT":"GENERATED VIA SPACE-TRACK.ORG API","CREATION_DATE":"2021-11-02T18:24:01","ORIGINATOR":"18 SPCS","OBJECT_NAME":"TBA - TO BE ASSIGNED","OBJECT_ID":"","CENTER_NAME":"EARTH","REF_FRAME":"TEME","TIME_SYSTEM":"UTC","MEAN_ELEMENT_THEORY":"SGP4","EPOCH":"2021-11-01T22:56:05.660448","MEAN_MOTION":"3.73479972","ECCENTRICITY":"0.61682810","INCLINATION":"21.6625","RA_OF_ASC_NODE":"180.9109","ARG_OF_PERICENTER":"163.7851","MEAN_ANOMALY":"231.7139","EPHEMERIS_TYPE":"0","CLASSIFICATION_TYPE":"U","NORAD_CAT_ID":"84026","ELEMENT_SET_NO":"999","REV_AT_EPOCH":"6999","BSTAR":"0.01139500000000","MEAN_MOTION_DOT":"0.00019243","MEAN_MOTION_DDOT":"0.0000000000000","SEMIMAJOR_AXIS":"17547.839","PERIOD":"385.563","APOAPSIS":"21993.703","PERIAPSIS":"345.704","OBJECT_TYPE":"TBA","RCS_SIZE":null,"COUNTRY_CODE":null,"LAUNCH_DATE":null,"SITE":null,"DECAY_DATE":null,"FILE":"3197730","GP_ID":"188716637","TLE_LINE0":"0 TBA - TO BE ASSIGNED","TLE_LINE1":"1 84026U          21305.95562107 +.00019243 +00000+0 +11395-1 0  9994","TLE_LINE2":"2 84026  21.6625 180.9109 6168281 163.7851 231.7139  3.73479972 69995"},{"CCSDS_OMM_VERS":"2.0","COMMENT":"GENERATED VIA SPACE-TRACK.ORG API","CREATION_DATE":"2021-11-01T19:35:20","ORIGINATOR":"18 SPCS","OBJECT_NAME":"TBA - TO BE ASSIGNED","OBJECT_ID":"","CENTER_NAME":"EARTH","REF_FRAME":"TEME","TIME_SYSTEM":"UTC","MEAN_ELEMENT_THEORY":"SGP4","EPOCH":"2021-11-01T03:51:02.084256","MEAN_MOTION":"2.08793079","ECCENTRICITY":"0.72842830","INCLINATION":"19.2302","RA_OF_ASC_NODE":"323.0713","ARG_OF_PERICENTER":"133.0287","MEAN_ANOMALY":"316.6557","EPHEMERIS_TYPE":"0","CLASSIFICATION_TYPE":"U","NORAD_CAT_ID":"84045","ELEMENT_SET_NO":"999","REV_AT_EPOCH":"1166","BSTAR":"-0.00739650000000","MEAN_MOTION_DOT":"-0.00000521","MEAN_MOTION_DDOT":"0.0000000000000","SEMIMAJOR_AXIS":"25857.772","PERIOD":"689.678","APOAPSIS":"38315.171","PERIAPSIS":"644.104","OBJECT_TYPE":"TBA","RCS_SIZE":null,"COUNTRY_CODE":null,"LAUNCH_DATE":null,"SITE":null,"DECAY_DATE":null,"FILE":"3196300","GP_ID":"188638626","TLE_LINE0":"0 TBA - TO BE ASSIGNED","TLE_LINE1":"1 84045U          21305.16044079 -.00000521 +00000+0 -73965-2 0  9994","TLE_LINE2":"2 84045  19.2302 323.0713 7284283 133.0287 316.6557  2.08793079 11669"},{"CCSDS_OMM_VERS":"2.0","COMMENT":"GENERATED VIA SPACE-TRACK.ORG API","CREATION_DATE":"2021-07-13T18:17:37","ORIGINATOR":"18 SPCS","OBJECT_NAME":"TBA - TO BE ASSIGNED","OBJECT_ID":"","CENTER_NAME":"EARTH","REF_FRAME":"TEME","TIME_SYSTEM":"UTC","MEAN_ELEMENT_THEORY":"SGP4","EPOCH":"2021-07-12T23:46:01.126848","MEAN_MOTION":"2.60541137","ECCENTRICITY":"0.69995870","INCLINATION":"20.7863","RA_OF_ASC_NODE":"61.7764","ARG_OF_PERICENTER":"287.2783","MEAN_ANOMALY":"11.6302","EPHEMERIS_TYPE":"0","CLASSIFICATION_TYPE":"U","NORAD_CAT_ID":"84071","ELEMENT_SET_NO":"999","REV_AT_EPOCH":"6105","BSTAR":"0.00028057000000","MEAN_MOTION_DOT":"-0.00000128","MEAN_MOTION_DDOT":"0.0000000000000","SEMIMAJOR_AXIS":"22309.216","PERIOD":"552.696","APOAPSIS":"31546.611","PERIAPSIS":"315.551","OBJECT_TYPE":"TBA","RCS_SIZE":null,"COUNTRY_CODE":null,"LAUNCH_DATE":null,"SITE":null,"DECAY_DATE":null,"FILE":"3076236","GP_ID":"180843335","TLE_LINE0":"0 TBA - TO BE ASSIGNED","TLE_LINE1":"1 84071U          21193.99029082 -.00000128 +00000+0 +28057-3 0  9991","TLE_LINE2":"2 84071  20.7863  61.7764 6999587 287.2783  11.6302  2.60541137 61053"},{"CCSDS_OMM_VERS":"2.0","COMMENT":"GENERATED VIA SPACE-TRACK.ORG API","CREATION_DATE":"2021-10-29T18:22:04","ORIGINATOR":"18 SPCS","OBJECT_NAME":"TBA - TO BE ASSIGNED","OBJECT_ID":"","CENTER_NAME":"EARTH","REF_FRAME":"TEME","TIME_SYSTEM":"UTC","MEAN_ELEMENT_THEORY":"SGP4","EPOCH":"2021-10-29T09:13:28.060320","MEAN_MOTION":"7.06621718","ECCENTRICITY":"0.39843250","INCLINATION":"62.7569","RA_OF_ASC_NODE":"306.7961","ARG_OF_PERICENTER":"167.8387","MEAN_ANOMALY":"205.8144","EPHEMERIS_TYPE":"0","CLASSIFICATION_TYPE":"U","NORAD_CAT_ID":"84079","ELEMENT_SET_NO":"999","REV_AT_EPOCH":"19786","BSTAR":"0.00210670000000","MEAN_MOTION_DOT":"0.00001730","MEAN_MOTION_DDOT":"0.0000000000000","SEMIMAJOR_AXIS":"11471.244","PERIOD":"203.787","APOAPSIS":"9663.626","PERIAPSIS":"522.593","OBJECT_TYPE":"TBA","RCS_SIZE":null,"COUNTRY_CODE":null,"LAUNCH_DATE":null,"SITE":null,"DECAY_DATE":null,"FILE":"3191411","GP_ID":"188414061","TLE_LINE0":"0 TBA - TO BE ASSIGNED","TLE_LINE1":"1 84079U          21302.38435255 +.00001730 +00000+0 +21067-2 0  9999","TLE_LINE2":"2 84079  62.7569 306.7961 3984325 167.8387 205.8144  7.06621718197864"}]